[{"OBJECT_NAME":"LEMUR-2-JK0903EM1407","OBJECT_ID":"2023-174CJ","EPOCH":"2026-03-05T04:59:39.398496","MEAN_MOTION":15.46399264,"ECCENTRICITY":0.00062482,"INCLINATION":97.3926,"RA_OF_ASC_NODE":152.1959,"ARG_OF_PERICENTER":130.7275,"MEAN_ANOMALY":229.4518,"EPHEMERIS_TYPE":0,"CLASSIFICATION_TYPE":"U","NORAD_CAT_ID":58336,"ELEMENT_SET_NO":999,"REV_AT_EPOCH":12963,"BSTAR":0.00061472511,"MEAN_MOTION_DOT":0.00030405,"MEAN_MOTION_DDOT":0},{"OBJECT_NAME":"LEMUR-2-MJR092620","OBJECT_ID":"2023-174CN","EPOCH":"2026-03-05T05:23:57.908256","MEAN_MOTION":15.4199071,"ECCENTRICITY":0.00081048,"INCLINATION":97.3994,"RA_OF_ASC_NODE":152.5921,"ARG_OF_PERICENTER":128.6205,"MEAN_ANOMALY":231.5768,"EPHEMERIS_TYPE":0,"CLASSIFICATION_TYPE":"U","NORAD_CAT_ID":58340,"ELEMENT_SET_NO":999,"REV_AT_EPOCH":12961,"BSTAR":0.00037226965,"MEAN_MOTION_DOT":0.00015806,"MEAN_MOTION_DDOT":0},{"OBJECT_NAME":"LEMUR-2-NIMBUS2000","OBJECT_ID":"2024-022A","EPOCH":"2026-03-05T12:34:27.826752","MEAN_MOTION":15.36581492,"ECCENTRICITY":0.00104807,"INCLINATION":97.4228,"RA_OF_ASC_NODE":273.3995,"ARG_OF_PERICENTER":126.7705,"MEAN_ANOMALY":233.4502,"EPHEMERIS_TYPE":0,"CLASSIFICATION_TYPE":"U","NORAD_CAT_ID":58899,"ELEMENT_SET_NO":999,"REV_AT_EPOCH":11633,"BSTAR":0.00059758748,"MEAN_MOTION_DOT":0.00021329,"MEAN_MOTION_DDOT":0},{"OBJECT_NAME":"LEMUR-2-VALHALLA","OBJECT_ID":"2024-022B","EPOCH":"2026-03-05T13:37:18.181920","MEAN_MOTION":15.36347625,"ECCENTRICITY":0.00110783,"INCLINATION":97.4223,"RA_OF_ASC_NODE":273.4789,"ARG_OF_PERICENTER":122.3848,"MEAN_ANOMALY":237.8469,"EPHEMERIS_TYPE":0,"CLASSIFICATION_TYPE":"U","NORAD_CAT_ID":58900,"ELEMENT_SET_NO":999,"REV_AT_EPOCH":11634,"BSTAR":0.00058648409,"MEAN_MOTION_DOT":0.00020778,"MEAN_MOTION_DDOT":0},{"OBJECT_NAME":"LEMUR-2-OBA-NI-JESU","OBJECT_ID":"2024-022D","EPOCH":"2026-03-05T13:47:56.490432","MEAN_MOTION":15.64447648,"ECCENTRICITY":0.0005096,"INCLINATION":97.406,"RA_OF_ASC_NODE":282.4241,"ARG_OF_PERICENTER":83.4339,"MEAN_ANOMALY":276.75,"EPHEMERIS_TYPE":0,"CLASSIFICATION_TYPE":"U","NORAD_CAT_ID":58902,"ELEMENT_SET_NO":999,"REV_AT_EPOCH":11695,"BSTAR":0.0010901699,"MEAN_MOTION_DOT":0.00105683,"MEAN_MOTION_DDOT":0},{"OBJECT_NAME":"LEMUR-2-CAEL","OBJECT_ID":"2024-022E","EPOCH":"2026-03-05T12:40:40.255680","MEAN_MOTION":15.37482559,"ECCENTRICITY":0.00094273,"INCLINATION":97.4213,"RA_OF_ASC_NODE":274.2063,"ARG_OF_PERICENTER":106.9855,"MEAN_ANOMALY":253.2423,"EPHEMERIS_TYPE":0,"CLASSIFICATION_TYPE":"U","NORAD_CAT_ID":58903,"ELEMENT_SET_NO":999,"REV_AT_EPOCH":11639,"BSTAR":0.00059909152,"MEAN_MOTION_DOT":0.00022008,"MEAN_MOTION_DDOT":0},{"OBJECT_NAME":"LEMUR-2-JOHNNYTRUONG","OBJECT_ID":"2024-043BA","EPOCH":"2026-03-05T15:46:31.335168","MEAN_MOTION":15.52756059,"ECCENTRICITY":0.00053848,"INCLINATION":97.5257,"RA_OF_ASC_NODE":210.628,"ARG_OF_PERICENTER":197.6501,"MEAN_ANOMALY":162.4565,"EPHEMERIS_TYPE":0,"CLASSIFICATION_TYPE":"U","NORAD_CAT_ID":59146,"ELEMENT_SET_NO":999,"REV_AT_EPOCH":11193,"BSTAR":0.00067321038,"MEAN_MOTION_DOT":0.00041689,"MEAN_MOTION_DDOT":0},{"OBJECT_NAME":"LEMUR-2-TOMATOKECHUP","OBJECT_ID":"2024-149D","EPOCH":"2026-03-05T10:50:00.787200","MEAN_MOTION":15.33623162,"ECCENTRICITY":0.00010723,"INCLINATION":97.3852,"RA_OF_ASC_NODE":146.395,"ARG_OF_PERICENTER":196.9844,"MEAN_ANOMALY":163.1362,"EPHEMERIS_TYPE":0,"CLASSIFICATION_TYPE":"U","NORAD_CAT_ID":60471,"ELEMENT_SET_NO":999,"REV_AT_EPOCH":8625,"BSTAR":0.00046479368,"MEAN_MOTION_DOT":0.00015043,"MEAN_MOTION_DDOT":0},{"OBJECT_NAME":"LEMUR-2-STELLA","OBJECT_ID":"2024-149BT","EPOCH":"2026-03-05T05:14:47.788224","MEAN_MOTION":15.09318063,"ECCENTRICITY":0.0001662,"INCLINATION":97.6785,"RA_OF_ASC_NODE":146.3991,"ARG_OF_PERICENTER":96.2059,"MEAN_ANOMALY":263.9359,"EPHEMERIS_TYPE":0,"CLASSIFICATION_TYPE":"U","NORAD_CAT_ID":60533,"ELEMENT_SET_NO":999,"REV_AT_EPOCH":8480,"BSTAR":0.00097407169,"MEAN_MOTION_DOT":0.00015492,"MEAN_MOTION_DDOT":0},{"OBJECT_NAME":"LEMUR-2-MARHISYAM","OBJECT_ID":"2024-149BW","EPOCH":"2026-03-05T11:54:43.043328","MEAN_MOTION":15.08877776,"ECCENTRICITY":0.00033752,"INCLINATION":97.6927,"RA_OF_ASC_NODE":147.0123,"ARG_OF_PERICENTER":116.3223,"MEAN_ANOMALY":243.8352,"EPHEMERIS_TYPE":0,"CLASSIFICATION_TYPE":"U","NORAD_CAT_ID":60536,"ELEMENT_SET_NO":999,"REV_AT_EPOCH":8483,"BSTAR":0.00099039905,"MEAN_MOTION_DOT":0.00015565,"MEAN_MOTION_DDOT":0},{"OBJECT_NAME":"LEMUR-2-AHMED-ASRAR","OBJECT_ID":"2024-149DN","EPOCH":"2026-03-05T05:27:29.118240","MEAN_MOTION":15.10234653,"ECCENTRICITY":0.00021211,"INCLINATION":97.704,"RA_OF_ASC_NODE":148.4532,"ARG_OF_PERICENTER":38.3078,"MEAN_ANOMALY":321.8302,"EPHEMERIS_TYPE":0,"CLASSIFICATION_TYPE":"U","NORAD_CAT_ID":60576,"ELEMENT_SET_NO":999,"REV_AT_EPOCH":8486,"BSTAR":0.00093026292,"MEAN_MOTION_DOT":0.00015168,"MEAN_MOTION_DDOT":0},{"OBJECT_NAME":"LEMUR-2-LLOYD","OBJECT_ID":"2024-149DP","EPOCH":"2026-03-05T05:03:33.083712","MEAN_MOTION":15.07046795,"ECCENTRICITY":0.00053285,"INCLINATION":97.6804,"RA_OF_ASC_NODE":145.4381,"ARG_OF_PERICENTER":134.9186,"MEAN_ANOMALY":225.2475,"EPHEMERIS_TYPE":0,"CLASSIFICATION_TYPE":"U","NORAD_CAT_ID":60577,"ELEMENT_SET_NO":999,"REV_AT_EPOCH":8472,"BSTAR":0.00091368679,"MEAN_MOTION_DOT":0.00013656,"MEAN_MOTION_DDOT":0},{"OBJECT_NAME":"LEMUR-2-SQUIRRELCOMM","OBJECT_ID":"2024-149DQ","EPOCH":"2026-03-05T10:35:27.697920","MEAN_MOTION":15.05795762,"ECCENTRICITY":0.00061061,"INCLINATION":97.6757,"RA_OF_ASC_NODE":145.7658,"ARG_OF_PERICENTER":53.7347,"MEAN_ANOMALY":306.4443,"EPHEMERIS_TYPE":0,"CLASSIFICATION_TYPE":"U","NORAD_CAT_ID":60578,"ELEMENT_SET_NO":999,"REV_AT_EPOCH":8478,"BSTAR":0.00070058841,"MEAN_MOTION_DOT":0.00010105,"MEAN_MOTION_DDOT":0},{"OBJECT_NAME":"LEMUR-2-SIERRINI","OBJECT_ID":"2024-149DR","EPOCH":"2026-03-05T03:58:57.945216","MEAN_MOTION":15.08529292,"ECCENTRICITY":0.00062041,"INCLINATION":97.6889,"RA_OF_ASC_NODE":146.4736,"ARG_OF_PERICENTER":163.0703,"MEAN_ANOMALY":197.0733,"EPHEMERIS_TYPE":0,"CLASSIFICATION_TYPE":"U","NORAD_CAT_ID":60579,"ELEMENT_SET_NO":999,"REV_AT_EPOCH":8476,"BSTAR":0.0010253836,"MEAN_MOTION_DOT":0.0001597,"MEAN_MOTION_DDOT":0},{"OBJECT_NAME":"LEMUR-2-WILSON","OBJECT_ID":"2025-009CP","EPOCH":"2026-03-05T05:06:15.125184","MEAN_MOTION":14.94645093,"ECCENTRICITY":0.00037467,"INCLINATION":97.7077,"RA_OF_ASC_NODE":144.5205,"ARG_OF_PERICENTER":45.4415,"MEAN_ANOMALY":314.7111,"EPHEMERIS_TYPE":0,"CLASSIFICATION_TYPE":"U","NORAD_CAT_ID":62694,"ELEMENT_SET_NO":999,"REV_AT_EPOCH":6182,"BSTAR":0.00034589224,"MEAN_MOTION_DOT":3.692e-5,"MEAN_MOTION_DDOT":0},{"OBJECT_NAME":"LEMUR-2-STAR-FOX","OBJECT_ID":"2025-009CR","EPOCH":"2026-03-05T11:29:47.159520","MEAN_MOTION":15.00779076,"ECCENTRICITY":0.000231,"INCLINATION":97.7056,"RA_OF_ASC_NODE":146.9578,"ARG_OF_PERICENTER":161.6094,"MEAN_ANOMALY":198.5214,"EPHEMERIS_TYPE":0,"CLASSIFICATION_TYPE":"U","NORAD_CAT_ID":62696,"ELEMENT_SET_NO":999,"REV_AT_EPOCH":6199,"BSTAR":0.0010010979,"MEAN_MOTION_DOT":0.00012661,"MEAN_MOTION_DDOT":0}]
