LEMUR-2-JK0903EM1407    
1 58336U 23174CJ  26064.20809489  .00030405  00000+0  61473-3 0  9995
2 58336  97.3926 152.1959 0006248 130.7275 229.4518 15.46399264129631
LEMUR-2-MJR092620       
1 58340U 23174CN  26064.22497579  .00015806  00000+0  37227-3 0  9993
2 58340  97.3994 152.5921 0008104 128.6205 231.5768 15.41990710129613
LEMUR-2-NIMBUS2000      
1 58899U 24022A   26064.52393318  .00021329  00000+0  59759-3 0  9995
2 58899  97.4228 273.3995 0010480 126.7705 233.4502 15.36581492116339
LEMUR-2-VALHALLA        
1 58900U 24022B   26064.56757155  .00020778  00000+0  58648-3 0  9998
2 58900  97.4223 273.4789 0011078 122.3848 237.8469 15.36347625116342
LEMUR-2-OBA-NI-JESU     
1 58902U 24022D   26064.57495938  .00105683  00000+0  10902-2 0  9998
2 58902  97.4060 282.4241 0005096  83.4339 276.7500 15.64447648116953
LEMUR-2-CAEL            
1 58903U 24022E   26064.52824370  .00022008  00000+0  59909-3 0  9990
2 58903  97.4213 274.2063 0009427 106.9855 253.2423 15.37482559116393
LEMUR-2-JOHNNYTRUONG    
1 59146U 24043BA  26064.65730712  .00041689  00000+0  67321-3 0  9996
2 59146  97.5257 210.6280 0005384 197.6501 162.4565 15.52756059111939
LEMUR-2-TOMATOKECHUP    
1 60471U 24149D   26064.45139800  .00015043  00000+0  46479-3 0  9991
2 60471  97.3852 146.3950 0001072 196.9844 163.1362 15.33623162 86258
LEMUR-2-STELLA          
1 60533U 24149BT  26064.21860866  .00015492  00000+0  97407-3 0  9992
2 60533  97.6785 146.3991 0001662  96.2059 263.9359 15.09318063 84803
LEMUR-2-MARHISYAM       
1 60536U 24149BW  26064.49633152  .00015565  00000+0  99040-3 0  9997
2 60536  97.6927 147.0123 0003375 116.3223 243.8352 15.08877776 84832
LEMUR-2-AHMED-ASRAR     
1 60576U 24149DN  26064.22742035  .00015168  00000+0  93026-3 0  9990
2 60576  97.7040 148.4532 0002121  38.3078 321.8302 15.10234653 84860
LEMUR-2-LLOYD           
1 60577U 24149DP  26064.21079958  .00013656  00000+0  91369-3 0  9995
2 60577  97.6804 145.4381 0005328 134.9186 225.2475 15.07046795 84729
LEMUR-2-SQUIRRELCOMM    
1 60578U 24149DQ  26064.44129280  .00010105  00000+0  70059-3 0  9994
2 60578  97.6757 145.7658 0006106  53.7347 306.4443 15.05795762 84785
LEMUR-2-SIERRINI        
1 60579U 24149DR  26064.16594844  .00015970  00000+0  10254-2 0  9991
2 60579  97.6889 146.4736 0006204 163.0703 197.0733 15.08529292 84767
LEMUR-2-WILSON          
1 62694U 25009CP  26064.21267506  .00003692  00000+0  34589-3 0  9991
2 62694  97.7077 144.5205 0003746  45.4415 314.7111 14.94645093 61820
LEMUR-2-STAR-FOX        
1 62696U 25009CR  26064.47901805  .00012661  00000+0  10011-2 0  9997
2 62696  97.7056 146.9578 0002310 161.6094 198.5214 15.00779076 61995
